{"type": "FeatureCollection", "features": [ {"type": "Feature", "properties": {"norad_id": 67121, "name": "STARLINK-36124", "group": "last-30-days", "lat": 0.7499149794485541, "lon": 51.83732910101958, "alt_km": 332.371613422476, "timestamp": "2025-12-26T10:30:48.978608+00:00", "meta": {"OBJECT_NAME": "STARLINK-36124", "OBJECT_ID": "2025-299V", "EPOCH": "2025-12-26T04:00:01.998720", "MEAN_MOTION": 15.80378598, "ECCENTRICITY": 0.0001768, "INCLINATION": 42.997, "RA_OF_ASC_NODE": 234.3009, "ARG_OF_PERICENTER": 284.4041, "MEAN_ANOMALY": 149.089, "EPHEMERIS_TYPE": 0, "CLASSIFICATION_TYPE": "U", "NORAD_CAT_ID": 67121, "ELEMENT_SET_NO": 999, "REV_AT_EPOCH": 296, "BSTAR": -0.010221, "MEAN_MOTION_DOT": -0.01759579, "MEAN_MOTION_DDOT": 0}, "tle": {"line1": "1 67121U 25299V   25360.16668980 -.01759579  00000+0 -10221-1 0  9995", "line2": "2 67121  42.9970 234.3009 0001768 284.4041 149.0890 15.80378598  2968"}}, "geometry": {"type": "Point", "coordinates": [51.83732910101958, 0.7499149794485541]}}, {"type": "Feature", "properties": {"norad_id": 67122, "name": "STARLINK-36188", "group": "last-30-days", "lat": -0.3111143591085971, "lon": 52.972544211958095, "alt_km": 332.1791081828678, "timestamp": "2025-12-26T10:30:48.978618+00:00", "meta": {"OBJECT_NAME": "STARLINK-36188", "OBJECT_ID": "2025-299W", "EPOCH": "2025-12-26T04:00:01.998720", "MEAN_MOTION": 15.80390617, "ECCENTRICITY": 0.0001762, "INCLINATION": 42.9972, "RA_OF_ASC_NODE": 234.2973, "ARG_OF_PERICENTER": 274.3382, "MEAN_ANOMALY": 160.6984, "EPHEMERIS_TYPE": 0, "CLASSIFICATION_TYPE": "U", "NORAD_CAT_ID": 67122, "ELEMENT_SET_NO": 999, "REV_AT_EPOCH": 296, "BSTAR": -0.010175, "MEAN_MOTION_DOT": -0.01753589, "MEAN_MOTION_DDOT": 0}, "tle": {"line1": "1 67122U 25299W   25360.16668980 -.01753589  00000+0 -10175-1 0  9999", "line2": "2 67122  42.9972 234.2973 0001762 274.3382 160.6984 15.80390617  2969"}}, "geometry": {"type": "Point", "coordinates": [52.972544211958095, -0.3111143591085971]}}, {"type": "Feature", "properties": {"norad_id": 67123, "name": "STARLINK-36151", "group": "last-30-days", "lat": 1.9681991924333417, "lon": 50.53350759815115, "alt_km": 332.0180957640496, "timestamp": "2025-12-26T10:30:48.978628+00:00", "meta": {"OBJECT_NAME": "STARLINK-36151", "OBJECT_ID": "2025-299X", "EPOCH": "2025-12-26T04:00:01.998720", "MEAN_MOTION": 15.80371366, "ECCENTRICITY": 0.0001751, "INCLINATION": 42.9975, "RA_OF_ASC_NODE": 234.3058, "ARG_OF_PERICENTER": 274.749, "MEAN_ANOMALY": 156.9622, "EPHEMERIS_TYPE": 0, "CLASSIFICATION_TYPE": "U", "NORAD_CAT_ID": 67123, "ELEMENT_SET_NO": 999, "REV_AT_EPOCH": 296, "BSTAR": -0.01018, "MEAN_MOTION_DOT": -0.01752841, "MEAN_MOTION_DDOT": 0}, "tle": {"line1": "1 67123U 25299X   25360.16668980 -.01752841  00000+0 -10180-1 0  9996", "line2": "2 67123  42.9975 234.3058 0001751 274.7490 156.9622 15.80371366  2967"}}, "geometry": {"type": "Point", "coordinates": [50.53350759815115, 1.9681991924333417]}}, {"type": "Feature", "properties": {"norad_id": 67124, "name": "STARLINK-36195", "group": "last-30-days", "lat": -1.4684984782820236, "lon": 54.211126345768015, "alt_km": 332.22704752143, "timestamp": "2025-12-26T10:30:48.978642+00:00", "meta": {"OBJECT_NAME": "STARLINK-36195", "OBJECT_ID": "2025-299Y", "EPOCH": "2025-12-26T04:00:01.998720", "MEAN_MOTION": 15.80399891, "ECCENTRICITY": 0.0001796, "INCLINATION": 42.9976, "RA_OF_ASC_NODE": 234.2932, "ARG_OF_PERICENTER": 272.7388, "MEAN_ANOMALY": 163.988, "EPHEMERIS_TYPE": 0, "CLASSIFICATION_TYPE": "U", "NORAD_CAT_ID": 67124, "ELEMENT_SET_NO": 999, "REV_AT_EPOCH": 296, "BSTAR": -0.010187, "MEAN_MOTION_DOT": -0.01756078, "MEAN_MOTION_DDOT": 0}, "tle": {"line1": "1 67124U 25299Y   25360.16668980 -.01756078  00000+0 -10187-1 0  9990", "line2": "2 67124  42.9976 234.2932 0001796 272.7388 163.9880 15.80399891  2969"}}, "geometry": {"type": "Point", "coordinates": [54.211126345768015, -1.4684984782820236]}}, {"type": "Feature", "properties": {"norad_id": 67125, "name": "STARLINK-36219", "group": "last-30-days", "lat": -2.573329745325379, "lon": 55.39457319674617, "alt_km": 332.3829000650567, "timestamp": "2025-12-26T10:30:48.978652+00:00", "meta": {"OBJECT_NAME": "STARLINK-36219", "OBJECT_ID": "2025-299Z", "EPOCH": "2025-12-26T04:00:01.998720", "MEAN_MOTION": 15.80414387, "ECCENTRICITY": 0.0001739, "INCLINATION": 42.9971, "RA_OF_ASC_NODE": 234.2885, "ARG_OF_PERICENTER": 276.1604, "MEAN_ANOMALY": 162.1752, "EPHEMERIS_TYPE": 0, "CLASSIFICATION_TYPE": "U", "NORAD_CAT_ID": 67125, "ELEMENT_SET_NO": 999, "REV_AT_EPOCH": 296, "BSTAR": -0.010218, "MEAN_MOTION_DOT": -0.01761724, "MEAN_MOTION_DDOT": 0}, "tle": {"line1": "1 67125U 25299Z   25360.16668980 -.01761724  00000+0 -10218-1 0  9990", "line2": "2 67125  42.9971 234.2885 0001739 276.1604 162.1752 15.80414387  2965"}}, "geometry": {"type": "Point", "coordinates": [55.39457319674617, -2.573329745325379]}}, {"type": "Feature", "properties": {"norad_id": 67126, "name": "STARLINK-36223", "group": "last-30-days", "lat": -3.8423066562997694, "lon": 56.75894040424225, "alt_km": 332.45431810068476, "timestamp": "2025-12-26T10:30:48.978662+00:00", "meta": {"OBJECT_NAME": "STARLINK-36223", "OBJECT_ID": "2025-299AA", "EPOCH": "2025-12-26T04:00:01.998720", "MEAN_MOTION": 15.80416242, "ECCENTRICITY": 0.0001739, "INCLINATION": 42.9973, "RA_OF_ASC_NODE": 234.2841, "ARG_OF_PERICENTER": 274.5948, "MEAN_ANOMALY": 165.6044, "EPHEMERIS_TYPE": 0, "CLASSIFICATION_TYPE": "U", "NORAD_CAT_ID": 67126, "ELEMENT_SET_NO": 999, "REV_AT_EPOCH": 296, "BSTAR": -0.010225, "MEAN_MOTION_DOT": -0.01762992, "MEAN_MOTION_DDOT": 0}, "tle": {"line1": "1 67126U 25299AA  25360.16668980 -.01762992  00000+0 -10225-1 0  9997", "line2": "2 67126  42.9973 234.2841 0001739 274.5948 165.6044 15.80416242  2967"}}, "geometry": {"type": "Point", "coordinates": [56.75894040424225, -3.8423066562997694]}}, {"type": "Feature", "properties": {"norad_id": 67127, "name": "STARLINK-36164", "group": "last-30-days", "lat": -5.013446041031349, "lon": 58.023573626120495, "alt_km": 332.51686082643937, "timestamp": "2025-12-26T10:30:48.978674+00:00", "meta": {"OBJECT_NAME": "STARLINK-36164", "OBJECT_ID": "2025-299AB", "EPOCH": "2025-12-26T04:00:01.998720", "MEAN_MOTION": 15.80419936, "ECCENTRICITY": 0.0001702, "INCLINATION": 42.9972, "RA_OF_ASC_NODE": 234.2798, "ARG_OF_PERICENTER": 273.9575, "MEAN_ANOMALY": 167.9593, "EPHEMERIS_TYPE": 0, "CLASSIFICATION_TYPE": "U", "NORAD_CAT_ID": 67127, "ELEMENT_SET_NO": 999, "REV_AT_EPOCH": 296, "BSTAR": -0.010175, "MEAN_MOTION_DOT": -0.01755626, "MEAN_MOTION_DDOT": 0}, "tle": {"line1": "1 67127U 25299AB  25360.16668980 -.01755626  00000+0 -10175-1 0  9998", "line2": "2 67127  42.9972 234.2798 0001702 273.9575 167.9593 15.80419936  2964"}}, "geometry": {"type": "Point", "coordinates": [58.023573626120495, -5.013446041031349]}}, {"type": "Feature", "properties": {"norad_id": 67128, "name": "STARLINK-35685", "group": "last-30-days", "lat": -8.104070232101755, "lon": 61.40001130753717, "alt_km": 333.03278390180003, "timestamp": "2025-12-26T10:30:48.978684+00:00", "meta": {"OBJECT_NAME": "STARLINK-35685", "OBJECT_ID": "2025-299AC", "EPOCH": "2025-12-26T04:00:01.998720", "MEAN_MOTION": 15.80394455, "ECCENTRICITY": 0.0001638, "INCLINATION": 42.9969, "RA_OF_ASC_NODE": 234.2679, "ARG_OF_PERICENTER": 281.2858, "MEAN_ANOMALY": 165.2265, "EPHEMERIS_TYPE": 0, "CLASSIFICATION_TYPE": "U", "NORAD_CAT_ID": 67128, "ELEMENT_SET_NO": 999, "REV_AT_EPOCH": 296, "BSTAR": -0.010211, "MEAN_MOTION_DOT": -0.01759165, "MEAN_MOTION_DDOT": 0}, "tle": {"line1": "1 67128U 25299AC  25360.16668980 -.01759165  00000+0 -10211-1 0  9992", "line2": "2 67128  42.9969 234.2679 0001638 281.2858 165.2265 15.80394455  2968"}}, "geometry": {"type": "Point", "coordinates": [61.40001130753717, -8.104070232101755]}}, {"type": "Feature", "properties": {"norad_id": 67129, "name": "STARLINK-36214", "group": "last-30-days", "lat": -6.335836832148987, "lon": 59.45996818733078, "alt_km": 332.67164126445005, "timestamp": "2025-12-26T10:30:48.978694+00:00", "meta": {"OBJECT_NAME": "STARLINK-36214", "OBJECT_ID": "2025-299AD", "EPOCH": "2025-12-26T04:00:01.998720", "MEAN_MOTION": 15.80418842, "ECCENTRICITY": 0.000177, "INCLINATION": 42.9973, "RA_OF_ASC_NODE": 234.2746, "ARG_OF_PERICENTER": 275.474, "MEAN_ANOMALY": 168.3965, "EPHEMERIS_TYPE": 0, "CLASSIFICATION_TYPE": "U", "NORAD_CAT_ID": 67129, "ELEMENT_SET_NO": 999, "REV_AT_EPOCH": 296, "BSTAR": -0.010187, "MEAN_MOTION_DOT": -0.01757383, "MEAN_MOTION_DDOT": 0}, "tle": {"line1": "1 67129U 25299AD  25360.16668980 -.01757383  00000+0 -10187-1 0  9995", "line2": "2 67129  42.9973 234.2746 0001770 275.4740 168.3965 15.80418842  2969"}}, "geometry": {"type": "Point", "coordinates": [59.45996818733078, -6.335836832148987]}}, {"type": "Feature", "properties": {"norad_id": 67130, "name": "STARLINK-36194", "group": "last-30-days", "lat": -11.020962149686268, "lon": 64.6653012998739, "alt_km": 333.4306951742401, "timestamp": "2025-12-26T10:30:48.978704+00:00", "meta": {"OBJECT_NAME": "STARLINK-36194", "OBJECT_ID": "2025-299AE", "EPOCH": "2025-12-26T04:00:01.998720", "MEAN_MOTION": 15.80304773, "ECCENTRICITY": 0.0001416, "INCLINATION": 42.9971, "RA_OF_ASC_NODE": 234.2583, "ARG_OF_PERICENTER": 276.9617, "MEAN_ANOMALY": 173.9889, "EPHEMERIS_TYPE": 0, "CLASSIFICATION_TYPE": "U", "NORAD_CAT_ID": 67130, "ELEMENT_SET_NO": 999, "REV_AT_EPOCH": 296, "BSTAR": -0.010268, "MEAN_MOTION_DOT": -0.01761172, "MEAN_MOTION_DDOT": 0}, "tle": {"line1": "1 67130U 25299AE  25360.16668980 -.01761172  00000+0 -10268-1 0  9998", "line2": "2 67130  42.9971 234.2583 0001416 276.9617 173.9889 15.80304773  2968"}}, "geometry": {"type": "Point", "coordinates": [64.6653012998739, -11.020962149686268]}}]}